[{"OBJECT_NAME":"STARLINK-2414","OBJECT_ID":"2021-027D","EPOCH":"2026-03-09T12:49:39.847872","MEAN_MOTION":15.30216265,"ECCENTRICITY":0.00013976,"INCLINATION":53.161,"RA_OF_ASC_NODE":166.0306,"ARG_OF_PERICENTER":94.3666,"MEAN_ANOMALY":265.7494,"EPHEMERIS_TYPE":0,"CLASSIFICATION_TYPE":"U","NORAD_CAT_ID":48095,"ELEMENT_SET_NO":999,"REV_AT_EPOCH":27250,"BSTAR":0.00026620708,"MEAN_MOTION_DOT":7.537e-5,"MEAN_MOTION_DDOT":0},{"OBJECT_NAME":"TIANMU-1 19","OBJECT_ID":"2023-208A","EPOCH":"2026-03-09T22:13:36.801696","MEAN_MOTION":15.2984143,"ECCENTRICITY":0.00039292,"INCLINATION":97.4383,"RA_OF_ASC_NODE":184.9132,"ARG_OF_PERICENTER":316.2611,"MEAN_ANOMALY":43.8317,"EPHEMERIS_TYPE":0,"CLASSIFICATION_TYPE":"U","NORAD_CAT_ID":58660,"ELEMENT_SET_NO":999,"REV_AT_EPOCH":12214,"BSTAR":0.00040995676,"MEAN_MOTION_DOT":0.00011779,"MEAN_MOTION_DDOT":0}]
